start=new Date('2022-07-03T00:00:00.000Z').valueOf();
sats=[{"OBJECT_TYPE":"PAYLOAD","PERIAPSIS":"546.201","EPOCH":"2022-07-02T20:46:43.235616","MEAN_MOTION_DOT":"0.00000470","TLE_LINE2":"2 48292  53.0572   3.4273 0001422  66.1917 293.9221 15.06409163 66046","INCLINATION":"53.0572","DECAY_DATE":null,"CLASSIFICATION_TYPE":"U","REF_FRAME":"TEME","SEMIMAJOR_AXIS":"6925.320","EPHEMERIS_TYPE":"0","OBJECT_ID":"2021-036S","TIME_SYSTEM":"UTC","SITE":"AFETR","PERIOD":"95.592","COUNTRY_CODE":"US","GP_ID":"207273600","BSTAR":"0.00005042200000","ELEMENT_SET_NO":"999","ECCENTRICITY":"0.00014220","CENTER_NAME":"EARTH","RA_OF_ASC_NODE":"3.4273","FILE":"3506786","REV_AT_EPOCH":"6604","RCS_SIZE":"LARGE","NORAD_CAT_ID":"48292","OBJECT_NAME":"STARLINK-2542","APOAPSIS":"548.170","MEAN_MOTION_DDOT":"0.0000000000000","LAUNCH_DATE":"2021-04-29","MEAN_ELEMENT_THEORY":"SGP4","MEAN_MOTION":"15.06409163","ARG_OF_PERICENTER":"66.1917","MEAN_ANOMALY":"293.9221","TLE_LINE1":"1 48292U 21036S   22183.86577819  .00000470  00000-0  50422-4 0  9992"},{"COUNTRY_CODE":"US","GP_ID":"207266504","PERIOD":"95.592","OBJECT_ID":"2021-036T","EPHEMERIS_TYPE":"0","SITE":"AFETR","TIME_SYSTEM":"UTC","DECAY_DATE":null,"INCLINATION":"53.0551","SEMIMAJOR_AXIS":"6925.340","CLASSIFICATION_TYPE":"U","REF_FRAME":"TEME","OBJECT_TYPE":"PAYLOAD","TLE_LINE2":"2 48293  53.0551   4.8414 0001684  76.6413 283.4764 15.06402798 65416","EPOCH":"2022-07-02T12:22:27.942816","MEAN_MOTION_DOT":"0.00000557","PERIAPSIS":"546.039","TLE_LINE1":"1 48293U 21036T   22183.51560119  .00000557  00000-0  56302-4 0  9999","MEAN_ANOMALY":"283.4764","ARG_OF_PERICENTER":"76.6413","MEAN_MOTION_DDOT":"0.0000000000000","APOAPSIS":"548.371","MEAN_MOTION":"15.06402798","MEAN_ELEMENT_THEORY":"SGP4","LAUNCH_DATE":"2021-04-29","FILE":"3506647","REV_AT_EPOCH":"6541","RA_OF_ASC_NODE":"4.8414","ELEMENT_SET_NO":"999","CENTER_NAME":"EARTH","ECCENTRICITY":"0.00016840","OBJECT_NAME":"STARLINK-2550","NORAD_CAT_ID":"48293","RCS_SIZE":"LARGE","BSTAR":"0.00005630200000"},{"MEAN_MOTION_DOT":"0.00000283","EPOCH":"2022-07-02T12:17:09.740256","TLE_LINE2":"2 48294  53.0558   4.8495 0001561  74.0927 286.0234 15.06399985 65413","PERIAPSIS":"546.133","OBJECT_TYPE":"PAYLOAD","REF_FRAME":"TEME","CLASSIFICATION_TYPE":"U","SEMIMAJOR_AXIS":"6925.349","DECAY_DATE":null,"INCLINATION":"53.0558","SITE":"AFETR","TIME_SYSTEM":"UTC","OBJECT_ID":"2021-036U","EPHEMERIS_TYPE":"0","COUNTRY_CODE":"US","GP_ID":"207266255","PERIOD":"95.592","BSTAR":"0.00003788100000","NORAD_CAT_ID":"48294","OBJECT_NAME":"STARLINK-2533","RCS_SIZE":"LARGE","RA_OF_ASC_NODE":"4.8495","FILE":"3506647","REV_AT_EPOCH":"6541","ECCENTRICITY":"0.00015610","ELEMENT_SET_NO":"999","CENTER_NAME":"EARTH","MEAN_MOTION":"15.06399985","LAUNCH_DATE":"2021-04-29","MEAN_ELEMENT_THEORY":"SGP4","APOAPSIS":"548.295","MEAN_MOTION_DDOT":"0.0000000000000","MEAN_ANOMALY":"286.0234","TLE_LINE1":"1 48294U 21036U   22183.51191829  .00000283  00000-0  37881-4 0  9995","ARG_OF_PERICENTER":"74.0927"},{"PERIAPSIS":"546.312","TLE_LINE2":"2 48295  53.0572   4.8637 0001286  79.7017 280.4117 15.06403486 65997","MEAN_MOTION_DOT":"-0.00000020","EPOCH":"2022-07-02T12:11:50.798976","OBJECT_TYPE":"PAYLOAD","SEMIMAJOR_AXIS":"6925.338","REF_FRAME":"TEME","CLASSIFICATION_TYPE":"U","INCLINATION":"53.0572","DECAY_DATE":null,"TIME_SYSTEM":"UTC","SITE":"AFETR","EPHEMERIS_TYPE":"0","OBJECT_ID":"2021-036V","PERIOD":"95.592","GP_ID":"207267505","COUNTRY_CODE":"US","BSTAR":"0.00001752000000","RCS_SIZE":"LARGE","OBJECT_NAME":"STARLINK-2535","NORAD_CAT_ID":"48295","ECCENTRICITY":"0.00012860","ELEMENT_SET_NO":"999","CENTER_NAME":"EARTH","FILE":"3506647","RA_OF_ASC_NODE":"4.8637","REV_AT_EPOCH":"6599","LAUNCH_DATE":"2021-04-29","MEAN_ELEMENT_THEORY":"SGP4","MEAN_MOTION":"15.06403486","APOAPSIS":"548.093","MEAN_MOTION_DDOT":"0.0000000000000","ARG_OF_PERICENTER":"79.7017","TLE_LINE1":"1 48295U 21036V   22183.50822684 -.00000020  00000-0  17520-4 0  9993","MEAN_ANOMALY":"280.4117"},{"MEAN_MOTION_DOT":"0.00000170","EPOCH":"2022-07-02T12:06:32.037408","TLE_LINE2":"2 48296  53.0562   4.8841 0001498  81.7317 278.3842 15.06404944 65413","PERIAPSIS":"546.161","OBJECT_TYPE":"PAYLOAD","CLASSIFICATION_TYPE":"U","REF_FRAME":"TEME","SEMIMAJOR_AXIS":"6925.333","DECAY_DATE":null,"INCLINATION":"53.0562","SITE":"AFETR","TIME_SYSTEM":"UTC","OBJECT_ID":"2021-036W","EPHEMERIS_TYPE":"0","COUNTRY_CODE":"US","GP_ID":"207267256","PERIOD":"95.592","BSTAR":"0.00003030900000","NORAD_CAT_ID":"48296","OBJECT_NAME":"STARLINK-2546","RCS_SIZE":"LARGE","REV_AT_EPOCH":"6541","FILE":"3506647","RA_OF_ASC_NODE":"4.8841","ELEMENT_SET_NO":"999","ECCENTRICITY":"0.00014980","CENTER_NAME":"EARTH","MEAN_MOTION":"15.06404944","MEAN_ELEMENT_THEORY":"SGP4","LAUNCH_DATE":"2021-04-29","MEAN_MOTION_DDOT":"0.0000000000000","APOAPSIS":"548.236","MEAN_ANOMALY":"278.3842","TLE_LINE1":"1 48296U 21036W   22183.50453747  .00000170  00000-0  30309-4 0  9999","ARG_OF_PERICENTER":"81.7317"},{"SITE":"AFETR","TIME_SYSTEM":"UTC","EPHEMERIS_TYPE":"0","OBJECT_ID":"2021-036X","COUNTRY_CODE":"US","GP_ID":"207266005","PERIOD":"95.592","TLE_LINE2":"2 48297  53.0556   4.8929 0001733  52.3067 307.8079 15.06404275 65419","MEAN_MOTION_DOT":"0.00000383","EPOCH":"2022-07-02T12:01:14.272032","PERIAPSIS":"546.000","OBJECT_TYPE":"PAYLOAD","SEMIMAJOR_AXIS":"6925.335","REF_FRAME":"TEME","CLASSIFICATION_TYPE":"U","DECAY_DATE":null,"INCLINATION":"53.0556","MEAN_MOTION":"15.06404275","LAUNCH_DATE":"2021-04-29","MEAN_ELEMENT_THEORY":"SGP4","APOAPSIS":"548.401","MEAN_MOTION_DDOT":"0.0000000000000","TLE_LINE1":"1 48297U 21036X   22183.50085963  .00000383  00000-0  44605-4 0  9991","MEAN_ANOMALY":"307.8079","ARG_OF_PERICENTER":"52.3067","BSTAR":"0.00004460500000","NORAD_CAT_ID":"48297","OBJECT_NAME":"STARLINK-2544","RCS_SIZE":"LARGE","FILE":"3506647","REV_AT_EPOCH":"6541","RA_OF_ASC_NODE":"4.8929","ECCENTRICITY":"0.00017330","ELEMENT_SET_NO":"999","CENTER_NAME":"EARTH"},{"NORAD_CAT_ID":"48298","OBJECT_NAME":"STARLINK-2559","RCS_SIZE":"LARGE","REV_AT_EPOCH":"6541","FILE":"3506647","RA_OF_ASC_NODE":"4.9174","ELEMENT_SET_NO":"999","CENTER_NAME":"EARTH","ECCENTRICITY":"0.00012590","BSTAR":"0.00013081000000","MEAN_ANOMALY":"285.7083","TLE_LINE1":"1 48298U 21036Y   22183.49716237  .00001668  00000-0  13081-3 0  9995","ARG_OF_PERICENTER":"74.4045","MEAN_MOTION":"15.06403443","MEAN_ELEMENT_THEORY":"SGP4","LAUNCH_DATE":"2021-04-29","APOAPSIS":"548.075","MEAN_MOTION_DDOT":"0.0000000000000","REF_FRAME":"TEME","CLASSIFICATION_TYPE":"U","SEMIMAJOR_AXIS":"6925.338","DECAY_DATE":null,"INCLINATION":"53.0562","MEAN_MOTION_DOT":"0.00001668","EPOCH":"2022-07-02T11:55:54.828768","TLE_LINE2":"2 48298  53.0562   4.9174 0001259  74.4045 285.7083 15.06403443 65419","PERIAPSIS":"546.331","OBJECT_TYPE":"PAYLOAD","GP_ID":"207266755","COUNTRY_CODE":"US","PERIOD":"95.592","SITE":"AFETR","TIME_SYSTEM":"UTC","EPHEMERIS_TYPE":"0","OBJECT_ID":"2021-036Y"},{"SEMIMAJOR_AXIS":"6925.335","CLASSIFICATION_TYPE":"U","REF_FRAME":"TEME","INCLINATION":"53.0553","DECAY_DATE":null,"PERIAPSIS":"546.223","TLE_LINE2":"2 48299  53.0553   4.6283 0001411  73.8171 286.2973 15.06404331 65423","MEAN_MOTION_DOT":"0.00000377","EPOCH":"2022-07-02T13:26:09.578112","OBJECT_TYPE":"PAYLOAD","PERIOD":"95.592","GP_ID":"207267006","COUNTRY_CODE":"US","TIME_SYSTEM":"UTC","SITE":"AFETR","OBJECT_ID":"2021-036Z","EPHEMERIS_TYPE":"0","RCS_SIZE":"MEDIUM","OBJECT_NAME":"STARLINK-2557","NORAD_CAT_ID":"48299","ELEMENT_SET_NO":"999","CENTER_NAME":"EARTH","ECCENTRICITY":"0.00014110","REV_AT_EPOCH":"6542","FILE":"3506647","RA_OF_ASC_NODE":"4.6283","BSTAR":"0.00004422800000","ARG_OF_PERICENTER":"73.8171","TLE_LINE1":"1 48299U 21036Z   22183.55983308  .00000377  00000-0  44228-4 0  9992","MEAN_ANOMALY":"286.2973","MEAN_ELEMENT_THEORY":"SGP4","LAUNCH_DATE":"2021-04-29","MEAN_MOTION":"15.06404331","APOAPSIS":"548.177","MEAN_MOTION_DDOT":"0.0000000000000"},{"ARG_OF_PERICENTER":"73.0084","TLE_LINE1":"1 48300U 21036AA  22183.55154180 -.00000437  00000-0 -10463-4 0  9996","MEAN_ANOMALY":"287.1080","APOAPSIS":"548.321","MEAN_MOTION_DDOT":"0.0000000000000","MEAN_ELEMENT_THEORY":"SGP4","LAUNCH_DATE":"2021-04-29","MEAN_MOTION":"15.06400038","ECCENTRICITY":"0.00015990","ELEMENT_SET_NO":"999","CENTER_NAME":"EARTH","REV_AT_EPOCH":"6528","FILE":"3506647","RA_OF_ASC_NODE":"14.6691","RCS_SIZE":"LARGE","NORAD_CAT_ID":"48300","OBJECT_NAME":"STARLINK-2538","BSTAR":"-0.00001046300000","PERIOD":"95.592","COUNTRY_CODE":"US","GP_ID":"207267756","EPHEMERIS_TYPE":"0","OBJECT_ID":"2021-036AA","TIME_SYSTEM":"UTC","SITE":"AFETR","INCLINATION":"53.0535","DECAY_DATE":null,"SEMIMAJOR_AXIS":"6925.348","CLASSIFICATION_TYPE":"U","REF_FRAME":"TEME","OBJECT_TYPE":"PAYLOAD","PERIAPSIS":"546.106","TLE_LINE2":"2 48300  53.0535  14.6691 0001599  73.0084 287.1080 15.06400038 65285","MEAN_MOTION_DOT":"-0.00000437","EPOCH":"2022-07-02T13:14:13.211520"},{"APOAPSIS":"548.257","MEAN_MOTION_DDOT":"0.0000000000000","MEAN_ELEMENT_THEORY":"SGP4","LAUNCH_DATE":"2021-04-29","MEAN_MOTION":"15.06404638","ARG_OF_PERICENTER":"83.0795","MEAN_ANOMALY":"277.0368","TLE_LINE1":"1 48301U 21036AB  22183.54784741  .00000540  00000-0  55114-4 0  9993","BSTAR":"0.00005511400000","ELEMENT_SET_NO":"999","CENTER_NAME":"EARTH","ECCENTRICITY":"0.00015270","FILE":"3506663","REV_AT_EPOCH":"6585","RA_OF_ASC_NODE":"14.6904","RCS_SIZE":"LARGE","OBJECT_NAME":"STARLINK-2537","NORAD_CAT_ID":"48301","EPHEMERIS_TYPE":"0","OBJECT_ID":"2021-036AB","TIME_SYSTEM":"UTC","SITE":"AFETR","PERIOD":"95.592","GP_ID":"207271016","COUNTRY_CODE":"US","OBJECT_TYPE":"PAYLOAD","PERIAPSIS":"546.142","EPOCH":"2022-07-02T13:08:54.016224","MEAN_MOTION_DOT":"0.00000540","TLE_LINE2":"2 48301  53.0558  14.6904 0001527  83.0795 277.0368 15.06404638 65859","INCLINATION":"53.0558","DECAY_DATE":null,"REF_FRAME":"TEME","CLASSIFICATION_TYPE":"U","SEMIMAJOR_AXIS":"6925.334"}];
